LEMUR-2-PETERG          
1 42841U 17042S   26068.48235713  .00023240  00000+0  81076-3 0  9993
2 42841  97.3980 253.6596 0003700 341.6938  18.4169 15.29611459473171
STARLINK-2486           
1 48143U 21027BD  26068.51796283  .00010369  00000+0  36147-3 0  9997
2 48143  53.1581 101.8331 0001350  88.6485 271.4670 15.30224546273382
