[{"OBJECT_NAME":"LEMUR-2-PETERG","OBJECT_ID":"2017-042S","EPOCH":"2026-03-09T11:34:35.656032","MEAN_MOTION":15.29611459,"ECCENTRICITY":0.00037,"INCLINATION":97.398,"RA_OF_ASC_NODE":253.6596,"ARG_OF_PERICENTER":341.6938,"MEAN_ANOMALY":18.4169,"EPHEMERIS_TYPE":0,"CLASSIFICATION_TYPE":"U","NORAD_CAT_ID":42841,"ELEMENT_SET_NO":999,"REV_AT_EPOCH":47317,"BSTAR":0.00081076471,"MEAN_MOTION_DOT":0.0002324,"MEAN_MOTION_DDOT":0},{"OBJECT_NAME":"STARLINK-2486","OBJECT_ID":"2021-027BD","EPOCH":"2026-03-09T12:25:51.988512","MEAN_MOTION":15.30224546,"ECCENTRICITY":0.00013501,"INCLINATION":53.1581,"RA_OF_ASC_NODE":101.8331,"ARG_OF_PERICENTER":88.6485,"MEAN_ANOMALY":271.467,"EPHEMERIS_TYPE":0,"CLASSIFICATION_TYPE":"U","NORAD_CAT_ID":48143,"ELEMENT_SET_NO":999,"REV_AT_EPOCH":27338,"BSTAR":0.00036146638,"MEAN_MOTION_DOT":0.00010369,"MEAN_MOTION_DDOT":0}]
